{
"type": "FeatureCollection",
"name": "sensor_sites",
"crs": { "type": "name", "properties": { "name": "urn:ogc:def:crs:OGC:1.3:CRS84" } },
"features": [
{ "type": "Feature", "properties": { "node_id": "TR-11", "channel": "school", "lganame": "Bomadi", "wardname": "Akugbene 1", "score": 0.3, "stable_core": false, "pop_under5": 288, "no2_umol_m2_mean": 18.696546893200622, "fac_phc": 0, "rationale": "Rank 30; 288 u5; zero PHCs (equity)" }, "geometry": { "type": "Point", "coordinates": [ 5.816551696114065, 5.254761377941071 ] } },
{ "type": "Feature", "properties": { "node_id": "TR-21", "channel": "community", "lganame": "Bomadi", "wardname": "Akugbene 2", "score": 0.291, "stable_core": true, "pop_under5": 0, "no2_umol_m2_mean": null, "fac_phc": 0, "rationale": "Rank 32; zero pop captured (mangrove); zero PHCs (equity); stable across all weightings" }, "geometry": { "type": "Point", "coordinates": [ 5.834338312840902, 5.247202846506479 ] } },
{ "type": "Feature", "properties": { "node_id": "TR-01", "channel": "PHC", "lganame": "Bomadi", "wardname": "Bomadi", "score": 0.477, "stable_core": true, "pop_under5": 5833, "no2_umol_m2_mean": 20.559719213035049, "fac_phc": 3, "rationale": "Rank 8; 5,833 children under 5; 3 PHCs to host; stable across all weightings" }, "geometry": { "type": "Point", "coordinates": [ 5.903319631038605, 5.155409761129132 ] } },
{ "type": "Feature", "properties": { "node_id": "TR-12", "channel": "school", "lganame": "Bomadi", "wardname": "Esanma", "score": 0.261, "stable_core": false, "pop_under5": 785, "no2_umol_m2_mean": 17.708213334799439, "fac_phc": 1, "rationale": "Rank 38; 785 u5" }, "geometry": { "type": "Point", "coordinates": [ 5.800102115860959, 5.222478154212778 ] } },
{ "type": "Feature", "properties": { "node_id": "TR-02", "channel": "PHC", "lganame": "Bomadi", "wardname": "Kpakiama", "score": 0.368, "stable_core": true, "pop_under5": 2863, "no2_umol_m2_mean": 20.040070568130531, "fac_phc": 3, "rationale": "Rank 19; 2863 u5; 3 PHCs to host; stable across all weightings" }, "geometry": { "type": "Point", "coordinates": [ 5.936009949975348, 5.192247045874129 ] } },
{ "type": "Feature", "properties": { "node_id": "TR-13", "channel": "school", "lganame": "Burutu", "wardname": "Egodor", "score": 0.293, "stable_core": false, "pop_under5": 1760, "no2_umol_m2_mean": 20.40809946871984, "fac_phc": 5, "rationale": "Rank 31; 1760 u5" }, "geometry": { "type": "Point", "coordinates": [ 5.694966950561308, 5.372553159563073 ] } },
{ "type": "Feature", "properties": { "node_id": "TR-14", "channel": "school", "lganame": "Burutu", "wardname": "Eseinbiri", "score": 0.289, "stable_core": false, "pop_under5": 2600, "no2_umol_m2_mean": 16.798467925127625, "fac_phc": 4, "rationale": "Rank 33; 2600 u5" }, "geometry": { "type": "Point", "coordinates": [ 5.790388188292875, 5.161907830266498 ] } },
{ "type": "Feature", "properties": { "node_id": "TR-04", "channel": "PHC", "lganame": "Burutu", "wardname": "Kiagbodo", "score": 0.37, "stable_core": true, "pop_under5": 2458, "no2_umol_m2_mean": 20.417207754993189, "fac_phc": 2, "rationale": "Rank 18; 2458 u5; 2 PHCs to host; stable across all weightings" }, "geometry": { "type": "Point", "coordinates": [ 5.881137881050896, 5.36781930796586 ] } },
{ "type": "Feature", "properties": { "node_id": "TR-03", "channel": "PHC", "lganame": "Burutu", "wardname": "Ogulagha", "score": 0.4, "stable_core": true, "pop_under5": 4975, "no2_umol_m2_mean": 16.604720763603435, "fac_phc": 5, "rationale": "Rank 13; 4975 u5; flare exposure; 5 PHCs to host; stable across all weightings" }, "geometry": { "type": "Point", "coordinates": [ 5.341250226332162, 5.390384069597674 ] } },
{ "type": "Feature", "properties": { "node_id": "TR-22", "channel": "community", "lganame": "Burutu", "wardname": "Tuomo", "score": 0.304, "stable_core": false, "pop_under5": 2395, "no2_umol_m2_mean": 17.551369902927643, "fac_phc": 3, "rationale": "Rank 28; 2395 u5" }, "geometry": { "type": "Point", "coordinates": [ 5.845655371285423, 5.112175609338436 ] } },
{ "type": "Feature", "properties": { "node_id": "TR-15", "channel": "school", "lganame": "Patani", "wardname": "Agoloma", "score": 0.374, "stable_core": false, "pop_under5": 1340, "no2_umol_m2_mean": 22.349095085398101, "fac_phc": 1, "rationale": "Rank 16; 1340 u5" }, "geometry": { "type": "Point", "coordinates": [ 6.173019417912117, 5.17178334767348 ] } },
{ "type": "Feature", "properties": { "node_id": "TR-23", "channel": "community", "lganame": "Patani", "wardname": "Patani 2", "score": 0.408, "stable_core": true, "pop_under5": 2064, "no2_umol_m2_mean": null, "fac_phc": 0, "rationale": "Rank 11; 2064 u5; zero PHCs (equity); stable across all weightings" }, "geometry": { "type": "Point", "coordinates": [ 6.223489152277269, 5.241339182325196 ] } },
{ "type": "Feature", "properties": { "node_id": "TR-05", "channel": "PHC", "lganame": "Patani", "wardname": "Patani 5", "score": 0.406, "stable_core": true, "pop_under5": 2240, "no2_umol_m2_mean": 22.234517321824871, "fac_phc": 1, "rationale": "Rank 12; 2240 u5; 1 PHCs to host; stable across all weightings" }, "geometry": { "type": "Point", "coordinates": [ 6.169914414265464, 5.207615233322386 ] } },
{ "type": "Feature", "properties": { "node_id": "TR-16", "channel": "school", "lganame": "Patani", "wardname": "Uduophori", "score": 0.371, "stable_core": false, "pop_under5": 1730, "no2_umol_m2_mean": 21.261279850174716, "fac_phc": 1, "rationale": "Rank 17; 1730 u5" }, "geometry": { "type": "Point", "coordinates": [ 6.051708792194623, 5.14414579109545 ] } },
{ "type": "Feature", "properties": { "node_id": "TR-25", "channel": "community", "lganame": "Warri South-West", "wardname": "Akpakpa", "score": 0.303, "stable_core": true, "pop_under5": 102, "no2_umol_m2_mean": null, "fac_phc": 0, "rationale": "Rank 29; 102 u5; zero PHCs (equity); stable across all weightings" }, "geometry": { "type": "Point", "coordinates": [ 5.213057365295069, 5.556097874433877 ] } },
{ "type": "Feature", "properties": { "node_id": "TR-10", "channel": "PHC", "lganame": "Warri South-West", "wardname": "Ogbe-Ijoh", "score": 0.488, "stable_core": true, "pop_under5": 2510, "no2_umol_m2_mean": 19.775775399466511, "fac_phc": 4, "rationale": "Rank 7; 2510 u5; heavy flare (1.14 BCM); 4 PHCs to host; stable across all weightings" }, "geometry": { "type": "Point", "coordinates": [ 5.50318331957747, 5.516358355550473 ] } },
{ "type": "Feature", "properties": { "node_id": "TR-20", "channel": "school", "lganame": "Warri South-West", "wardname": "Ogidigben", "score": 0.314, "stable_core": false, "pop_under5": 598, "no2_umol_m2_mean": 17.637347506630856, "fac_phc": 1, "rationale": "Rank 27; 598 u5; heavy flare (0.54 BCM)" }, "geometry": { "type": "Point", "coordinates": [ 5.202928960005458, 5.529232654622319 ] } },
{ "type": "Feature", "properties": { "node_id": "TR-19", "channel": "school", "lganame": "Warri South-West", "wardname": "Okerenkoko", "score": 0.392, "stable_core": true, "pop_under5": 1090, "no2_umol_m2_mean": 18.833666699185201, "fac_phc": 2, "rationale": "Rank 14; 1090 u5; heavy flare (0.90 BCM); stable across all weightings" }, "geometry": { "type": "Point", "coordinates": [ 5.404593726285626, 5.709579416197367 ] } },
{ "type": "Feature", "properties": { "node_id": "TR-09", "channel": "PHC", "lganame": "Warri South-West", "wardname": "Ugborodo", "score": 0.51, "stable_core": true, "pop_under5": 1981, "no2_umol_m2_mean": 20.794467369948205, "fac_phc": 1, "rationale": "Rank 6; 1981 u5; heavy flare (1.05 BCM); 1 PHCs to host; stable across all weightings" }, "geometry": { "type": "Point", "coordinates": [ 5.14815671093737, 5.661352187032568 ] } },
{ "type": "Feature", "properties": { "node_id": "TR-18", "channel": "school", "lganame": "Warri South", "wardname": "Avenue", "score": 0.465, "stable_core": false, "pop_under5": 3738, "no2_umol_m2_mean": null, "fac_phc": 7, "rationale": "Rank 9; 3738 u5" }, "geometry": { "type": "Point", "coordinates": [ 5.730608027969212, 5.542997323625213 ] } },
{ "type": "Feature", "properties": { "node_id": "TR-06", "channel": "PHC", "lganame": "Warri South", "wardname": "Ekurede", "score": 0.801, "stable_core": true, "pop_under5": 12247, "no2_umol_m2_mean": 28.989669544898788, "fac_phc": 11, "rationale": "Rank 1 overall; 12,247 children under 5; high NO2 (29.0 umol/m^2); 11 PHCs to host; stable across all weightings" }, "geometry": { "type": "Point", "coordinates": [ 5.719842927674943, 5.528814564039333 ] } },
{ "type": "Feature", "properties": { "node_id": "TR-17", "channel": "school", "lganame": "Warri South", "wardname": "Igbudu", "score": 0.582, "stable_core": false, "pop_under5": 7774, "no2_umol_m2_mean": null, "fac_phc": 14, "rationale": "Rank 5 overall; 7,774 children under 5" }, "geometry": { "type": "Point", "coordinates": [ 5.765095379453039, 5.519393875718313 ] } },
{ "type": "Feature", "properties": { "node_id": "TR-08", "channel": "PHC", "lganame": "Warri South", "wardname": "Okere", "score": 0.645, "stable_core": true, "pop_under5": 9257, "no2_umol_m2_mean": null, "fac_phc": 10, "rationale": "Rank 3 overall; 9,257 children under 5; 10 PHCs to host; stable across all weightings" }, "geometry": { "type": "Point", "coordinates": [ 5.743604135172609, 5.520445241211121 ] } },
{ "type": "Feature", "properties": { "node_id": "TR-24", "channel": "community", "lganame": "Warri South", "wardname": "Pessu", "score": 0.616, "stable_core": true, "pop_under5": 4862, "no2_umol_m2_mean": 30.333824194409925, "fac_phc": 4, "rationale": "Rank 4 overall; 4862 u5; high NO2 (30.3 umol/m^2); stable across all weightings" }, "geometry": { "type": "Point", "coordinates": [ 5.765289701842493, 5.499831500404834 ] } },
{ "type": "Feature", "properties": { "node_id": "TR-07", "channel": "PHC", "lganame": "Warri South", "wardname": "Ubeji", "score": 0.655, "stable_core": false, "pop_under5": 10314, "no2_umol_m2_mean": 23.426907318935264, "fac_phc": 6, "rationale": "Rank 2 overall; 10,314 children under 5; 6 PHCs to host" }, "geometry": { "type": "Point", "coordinates": [ 5.660984342087737, 5.567393543151808 ] } }
]
}
